{
    "links": {
        "self": "http://www.neowsapp.com/rest/v1/neo/3765002?api_key=iIulBulltgU6a56xZRHN4H3l9WmuAYTsLGpBGhQ2"
    },
    "id": "3765002",
    "neo_reference_id": "3765002",
    "name": "(2016 WO48)",
    "designation": "2016 WO48",
    "nasa_jpl_url": "http://ssd.jpl.nasa.gov/sbdb.cgi?sstr=3765002",
    "absolute_magnitude_h": 25.6,
    "estimated_diameter": {
        "kilometers": {
            "estimated_diameter_min": 0.0201629919,
            "estimated_diameter_max": 0.0450858206
        },
        "meters": {
            "estimated_diameter_min": 20.1629919443,
            "estimated_diameter_max": 45.0858206172
        },
        "miles": {
            "estimated_diameter_min": 0.0125286985,
            "estimated_diameter_max": 0.0280150214
        },
        "feet": {
            "estimated_diameter_min": 66.1515504905,
            "estimated_diameter_max": 147.9193637137
        }
    },
    "is_potentially_hazardous_asteroid": false,
    "close_approach_data": [
        {
            "close_approach_date": "2016-11-24",
            "close_approach_date_full": "2016-Nov-24 08:10",
            "epoch_date_close_approach": 1479975000000,
            "relative_velocity": {
                "kilometers_per_second": "7.614923535",
                "kilometers_per_hour": "27413.7247260541",
                "miles_per_hour": "17033.8224554751"
            },
            "miss_distance": {
                "astronomical": "0.0626172325",
                "lunar": "24.3581034425",
                "kilometers": "9367404.607294775",
                "miles": "5820635.316526895"
            },
            "orbiting_body": "Earth"
        }
    ],
    "orbital_data": {
        "orbit_id": "4",
        "orbit_determination_date": "2017-04-06 08:21:46",
        "first_observation_date": "2016-11-30",
        "last_observation_date": "2016-12-07",
        "data_arc_in_days": 7,
        "observations_used": 31,
        "orbit_uncertainty": "8",
        "minimum_orbit_intersection": ".0624674",
        "jupiter_tisserand_invariant": "4.551",
        "epoch_osculation": "2457724.5",
        "eccentricity": ".2818150643148252",
        "semi_major_axis": "1.461628554040048",
        "inclination": "12.9280489963152",
        "ascending_node_longitude": "242.6432704633086",
        "orbital_period": "645.4371441533286",
        "perihelion_distance": "1.049719609078867",
        "perihelion_argument": "179.7852438254161",
        "aphelion_distance": "1.873537499001229",
        "perihelion_time": "2457717.198455119145",
        "mean_anomaly": "4.07252074182357",
        "mean_motion": ".5577615159912135",
        "equinox": "J2000",
        "orbit_class": {
            "orbit_class_type": "AMO",
            "orbit_class_description": "Near-Earth asteroid orbits similar to that of 1221 Amor",
            "orbit_class_range": "1.017 AU < q (perihelion) < 1.3 AU"
        }
    },
    "is_sentry_object": false
}